[{"OBJECT_NAME":"STARLINK-5726","OBJECT_ID":"2023-020AR","EPOCH":"2025-10-20T06:18:10.153728","MEAN_MOTION":15.02537747,"ECCENTRICITY":0.00012077,"INCLINATION":43.0062,"RA_OF_ASC_NODE":34.8614,"ARG_OF_PERICENTER":266.4951,"MEAN_ANOMALY":93.5754,"EPHEMERIS_TYPE":0,"CLASSIFICATION_TYPE":"U","NORAD_CAT_ID":55608,"ELEMENT_SET_NO":999,"REV_AT_EPOCH":14794,"BSTAR":7.1796813e-5,"MEAN_MOTION_DOT":7.66e-6,"MEAN_MOTION_DDOT":0},{"OBJECT_NAME":"STARLINK-5719","OBJECT_ID":"2023-020AS","EPOCH":"2025-10-19T14:28:52.806144","MEAN_MOTION":15.02535705,"ECCENTRICITY":0.00011226,"INCLINATION":43.0066,"RA_OF_ASC_NODE":38.5113,"ARG_OF_PERICENTER":258.0073,"MEAN_ANOMALY":102.0644,"EPHEMERIS_TYPE":0,"CLASSIFICATION_TYPE":"U","NORAD_CAT_ID":55609,"ELEMENT_SET_NO":999,"REV_AT_EPOCH":14784,"BSTAR":1.6784693e-5,"MEAN_MOTION_DOT":2.3e-7,"MEAN_MOTION_DDOT":0},{"OBJECT_NAME":"STARLINK-5722","OBJECT_ID":"2023-020AT","EPOCH":"2025-10-19T14:09:42.321888","MEAN_MOTION":15.02539545,"ECCENTRICITY":0.00016414,"INCLINATION":43.0041,"RA_OF_ASC_NODE":38.413,"ARG_OF_PERICENTER":285.275,"MEAN_ANOMALY":74.7911,"EPHEMERIS_TYPE":0,"CLASSIFICATION_TYPE":"U","NORAD_CAT_ID":55610,"ELEMENT_SET_NO":999,"REV_AT_EPOCH":14784,"BSTAR":0.00014646319,"MEAN_MOTION_DOT":1.775e-5,"MEAN_MOTION_DDOT":0},{"OBJECT_NAME":"STARLINK-5730","OBJECT_ID":"2023-020AU","EPOCH":"2025-10-19T15:42:14.329728","MEAN_MOTION":15.02569422,"ECCENTRICITY":0.00012159,"INCLINATION":43.0052,"RA_OF_ASC_NODE":38.0369,"ARG_OF_PERICENTER":288.1063,"MEAN_ANOMALY":71.9647,"EPHEMERIS_TYPE":0,"CLASSIFICATION_TYPE":"U","NORAD_CAT_ID":55611,"ELEMENT_SET_NO":999,"REV_AT_EPOCH":14785,"BSTAR":-0.00043464567,"MEAN_MOTION_DOT":-6.075e-5,"MEAN_MOTION_DDOT":0},{"OBJECT_NAME":"STARLINK-5734","OBJECT_ID":"2023-020AV","EPOCH":"2025-10-19T15:40:37.912512","MEAN_MOTION":15.02538165,"ECCENTRICITY":0.00012263,"INCLINATION":43.0048,"RA_OF_ASC_NODE":38.0271,"ARG_OF_PERICENTER":263.7855,"MEAN_ANOMALY":96.2847,"EPHEMERIS_TYPE":0,"CLASSIFICATION_TYPE":"U","NORAD_CAT_ID":55612,"ELEMENT_SET_NO":999,"REV_AT_EPOCH":14785,"BSTAR":7.913176e-6,"MEAN_MOTION_DOT":-9.7e-7,"MEAN_MOTION_DDOT":0},{"OBJECT_NAME":"STARLINK-5715","OBJECT_ID":"2023-020AW","EPOCH":"2025-10-20T08:00:03.000384","MEAN_MOTION":15.53894823,"ECCENTRICITY":0.00014754,"INCLINATION":43.003,"RA_OF_ASC_NODE":26.5921,"ARG_OF_PERICENTER":283.3267,"MEAN_ANOMALY":182.8057,"EPHEMERIS_TYPE":0,"CLASSIFICATION_TYPE":"U","NORAD_CAT_ID":55613,"ELEMENT_SET_NO":999,"REV_AT_EPOCH":583,"BSTAR":0.0039592861,"MEAN_MOTION_DOT":0.00270588,"MEAN_MOTION_DDOT":0},{"OBJECT_NAME":"STARLINK-5714","OBJECT_ID":"2023-020AX","EPOCH":"2025-10-20T06:08:56.394528","MEAN_MOTION":15.02535126,"ECCENTRICITY":0.00013577,"INCLINATION":43.0044,"RA_OF_ASC_NODE":21.7573,"ARG_OF_PERICENTER":265.7024,"MEAN_ANOMALY":94.3663,"EPHEMERIS_TYPE":0,"CLASSIFICATION_TYPE":"U","NORAD_CAT_ID":55614,"ELEMENT_SET_NO":999,"REV_AT_EPOCH":14809,"BSTAR":1.1782261e-5,"MEAN_MOTION_DOT":-4.4e-7,"MEAN_MOTION_DDOT":0},{"OBJECT_NAME":"STARLINK-5712","OBJECT_ID":"2023-020AY","EPOCH":"2025-10-19T14:00:06.793344","MEAN_MOTION":15.02538325,"ECCENTRICITY":0.00012355,"INCLINATION":43.007,"RA_OF_ASC_NODE":38.3646,"ARG_OF_PERICENTER":266.0172,"MEAN_ANOMALY":94.0529,"EPHEMERIS_TYPE":0,"CLASSIFICATION_TYPE":"U","NORAD_CAT_ID":55615,"ELEMENT_SET_NO":999,"REV_AT_EPOCH":14784,"BSTAR":2.199318e-5,"MEAN_MOTION_DOT":9.3e-7,"MEAN_MOTION_DDOT":0},{"OBJECT_NAME":"STARLINK-5710","OBJECT_ID":"2023-020AZ","EPOCH":"2025-10-19T13:47:19.035168","MEAN_MOTION":15.02537556,"ECCENTRICITY":0.00011271,"INCLINATION":43.0049,"RA_OF_ASC_NODE":38.2968,"ARG_OF_PERICENTER":275.308,"MEAN_ANOMALY":84.7634,"EPHEMERIS_TYPE":0,"CLASSIFICATION_TYPE":"U","NORAD_CAT_ID":55616,"ELEMENT_SET_NO":999,"REV_AT_EPOCH":14784,"BSTAR":1.3814757e-5,"MEAN_MOTION_DOT":-1.7e-7,"MEAN_MOTION_DDOT":0},{"OBJECT_NAME":"STARLINK-5721","OBJECT_ID":"2023-020BA","EPOCH":"2025-10-18T13:59:22.765632","MEAN_MOTION":15.02544731,"ECCENTRICITY":0.00011911,"INCLINATION":43.0015,"RA_OF_ASC_NODE":43.7536,"ARG_OF_PERICENTER":273.9799,"MEAN_ANOMALY":86.0907,"EPHEMERIS_TYPE":0,"CLASSIFICATION_TYPE":"U","NORAD_CAT_ID":55617,"ELEMENT_SET_NO":999,"REV_AT_EPOCH":14769,"BSTAR":0.00011586663,"MEAN_MOTION_DOT":1.362e-5,"MEAN_MOTION_DDOT":0},{"OBJECT_NAME":"STARLINK-5717","OBJECT_ID":"2023-020BB","EPOCH":"2025-10-18T13:49:48.252288","MEAN_MOTION":15.0253389,"ECCENTRICITY":0.00011827,"INCLINATION":43.0017,"RA_OF_ASC_NODE":43.7051,"ARG_OF_PERICENTER":280.6848,"MEAN_ANOMALY":79.3861,"EPHEMERIS_TYPE":0,"CLASSIFICATION_TYPE":"U","NORAD_CAT_ID":55618,"ELEMENT_SET_NO":999,"REV_AT_EPOCH":14769,"BSTAR":8.5197901e-5,"MEAN_MOTION_DOT":9.47e-6,"MEAN_MOTION_DDOT":0},{"OBJECT_NAME":"STARLINK-5720","OBJECT_ID":"2023-020BC","EPOCH":"2025-10-19T15:16:38.738208","MEAN_MOTION":15.02541854,"ECCENTRICITY":0.00013516,"INCLINATION":43.0057,"RA_OF_ASC_NODE":37.9028,"ARG_OF_PERICENTER":278.8596,"MEAN_ANOMALY":81.2094,"EPHEMERIS_TYPE":0,"CLASSIFICATION_TYPE":"U","NORAD_CAT_ID":55619,"ELEMENT_SET_NO":999,"REV_AT_EPOCH":14785,"BSTAR":5.044362e-6,"MEAN_MOTION_DOT":-1.36e-6,"MEAN_MOTION_DDOT":0},{"OBJECT_NAME":"STARLINK-5718","OBJECT_ID":"2023-020BD","EPOCH":"2025-10-19T15:11:51.916128","MEAN_MOTION":15.02533964,"ECCENTRICITY":0.0001407,"INCLINATION":43.0059,"RA_OF_ASC_NODE":37.8762,"ARG_OF_PERICENTER":269.5679,"MEAN_ANOMALY":90.5002,"EPHEMERIS_TYPE":0,"CLASSIFICATION_TYPE":"U","NORAD_CAT_ID":55620,"ELEMENT_SET_NO":999,"REV_AT_EPOCH":14785,"BSTAR":-4.9689e-8,"MEAN_MOTION_DOT":-2.04e-6,"MEAN_MOTION_DDOT":0},{"OBJECT_NAME":"STARLINK-5709","OBJECT_ID":"2023-020BE","EPOCH":"2025-10-19T15:27:50.804928","MEAN_MOTION":15.02535025,"ECCENTRICITY":0.0001609,"INCLINATION":43.0079,"RA_OF_ASC_NODE":37.9619,"ARG_OF_PERICENTER":272.3453,"MEAN_ANOMALY":87.7205,"EPHEMERIS_TYPE":0,"CLASSIFICATION_TYPE":"U","NORAD_CAT_ID":55621,"ELEMENT_SET_NO":999,"REV_AT_EPOCH":14785,"BSTAR":3.7801811e-5,"MEAN_MOTION_DOT":3.07e-6,"MEAN_MOTION_DDOT":0},{"OBJECT_NAME":"STARLINK-5702","OBJECT_ID":"2023-020BF","EPOCH":"2025-10-19T16:44:23.503200","MEAN_MOTION":15.02540151,"ECCENTRICITY":0.00014119,"INCLINATION":43.0042,"RA_OF_ASC_NODE":37.5034,"ARG_OF_PERICENTER":267.4226,"MEAN_ANOMALY":92.6455,"EPHEMERIS_TYPE":0,"CLASSIFICATION_TYPE":"U","NORAD_CAT_ID":55622,"ELEMENT_SET_NO":999,"REV_AT_EPOCH":14786,"BSTAR":-1.3087001e-5,"MEAN_MOTION_DOT":-3.8e-6,"MEAN_MOTION_DDOT":0},{"OBJECT_NAME":"STARLINK-5698","OBJECT_ID":"2023-020BG","EPOCH":"2025-10-19T16:38:00.073824","MEAN_MOTION":15.02537824,"ECCENTRICITY":0.00012136,"INCLINATION":43.0066,"RA_OF_ASC_NODE":37.4655,"ARG_OF_PERICENTER":272.4779,"MEAN_ANOMALY":87.5925,"EPHEMERIS_TYPE":0,"CLASSIFICATION_TYPE":"U","NORAD_CAT_ID":55623,"ELEMENT_SET_NO":999,"REV_AT_EPOCH":14786,"BSTAR":2.3474769e-5,"MEAN_MOTION_DOT":1.13e-6,"MEAN_MOTION_DDOT":0},{"OBJECT_NAME":"STARLINK-5484","OBJECT_ID":"2023-021A","EPOCH":"2025-10-20T03:26:42.413280","MEAN_MOTION":14.98330617,"ECCENTRICITY":0.00028681,"INCLINATION":69.9999,"RA_OF_ASC_NODE":198.9079,"ARG_OF_PERICENTER":265.9296,"MEAN_ANOMALY":94.1535,"EPHEMERIS_TYPE":0,"CLASSIFICATION_TYPE":"U","NORAD_CAT_ID":55628,"ELEMENT_SET_NO":999,"REV_AT_EPOCH":14724,"BSTAR":-1.0414692e-5,"MEAN_MOTION_DOT":-2.17e-6,"MEAN_MOTION_DDOT":0},{"OBJECT_NAME":"STARLINK-5497","OBJECT_ID":"2023-021B","EPOCH":"2025-10-20T03:32:43.317312","MEAN_MOTION":14.98334668,"ECCENTRICITY":0.00023196,"INCLINATION":70.0003,"RA_OF_ASC_NODE":198.9237,"ARG_OF_PERICENTER":264.5286,"MEAN_ANOMALY":95.5609,"EPHEMERIS_TYPE":0,"CLASSIFICATION_TYPE":"U","NORAD_CAT_ID":55629,"ELEMENT_SET_NO":999,"REV_AT_EPOCH":14724,"BSTAR":0.0004351889,"MEAN_MOTION_DOT":5.104e-5,"MEAN_MOTION_DDOT":0},{"OBJECT_NAME":"STARLINK-5303","OBJECT_ID":"2023-021C","EPOCH":"2025-10-20T03:20:42.795744","MEAN_MOTION":14.98319835,"ECCENTRICITY":0.00025834,"INCLINATION":70.0006,"RA_OF_ASC_NODE":198.8923,"ARG_OF_PERICENTER":276.7922,"MEAN_ANOMALY":83.2943,"EPHEMERIS_TYPE":0,"CLASSIFICATION_TYPE":"U","NORAD_CAT_ID":55630,"ELEMENT_SET_NO":999,"REV_AT_EPOCH":14724,"BSTAR":-0.00010645994,"MEAN_MOTION_DOT":-1.363e-5,"MEAN_MOTION_DDOT":0},{"OBJECT_NAME":"STARLINK-5558","OBJECT_ID":"2023-021D","EPOCH":"2025-10-20T04:20:45.862368","MEAN_MOTION":14.98332214,"ECCENTRICITY":0.0002453,"INCLINATION":70.0008,"RA_OF_ASC_NODE":198.6358,"ARG_OF_PERICENTER":263.7149,"MEAN_ANOMALY":96.373,"EPHEMERIS_TYPE":0,"CLASSIFICATION_TYPE":"U","NORAD_CAT_ID":55631,"ELEMENT_SET_NO":999,"REV_AT_EPOCH":14725,"BSTAR":-3.7910256e-5,"MEAN_MOTION_DOT":-5.45e-6,"MEAN_MOTION_DDOT":0},{"OBJECT_NAME":"STARLINK-5546","OBJECT_ID":"2023-021E","EPOCH":"2025-10-20T03:08:40.697376","MEAN_MOTION":14.98350151,"ECCENTRICITY":0.00026175,"INCLINATION":70.0026,"RA_OF_ASC_NODE":198.8607,"ARG_OF_PERICENTER":273.3735,"MEAN_ANOMALY":86.7125,"EPHEMERIS_TYPE":0,"CLASSIFICATION_TYPE":"U","NORAD_CAT_ID":55632,"ELEMENT_SET_NO":999,"REV_AT_EPOCH":14724,"BSTAR":0.00083161003,"MEAN_MOTION_DOT":9.849e-5,"MEAN_MOTION_DDOT":0},{"OBJECT_NAME":"STARLINK-5498","OBJECT_ID":"2023-021F","EPOCH":"2025-10-20T01:26:31.801920","MEAN_MOTION":14.98330804,"ECCENTRICITY":0.00025609,"INCLINATION":70.001,"RA_OF_ASC_NODE":199.0148,"ARG_OF_PERICENTER":271.7615,"MEAN_ANOMALY":88.3251,"EPHEMERIS_TYPE":0,"CLASSIFICATION_TYPE":"U","NORAD_CAT_ID":55633,"ELEMENT_SET_NO":999,"REV_AT_EPOCH":14723,"BSTAR":7.291471e-6,"MEAN_MOTION_DOT":-6.0e-8,"MEAN_MOTION_DDOT":0},{"OBJECT_NAME":"STARLINK-5500","OBJECT_ID":"2023-021G","EPOCH":"2025-10-20T04:45:00.675072","MEAN_MOTION":14.98345177,"ECCENTRICITY":0.00030002,"INCLINATION":70.0011,"RA_OF_ASC_NODE":198.695,"ARG_OF_PERICENTER":236.8098,"MEAN_ANOMALY":123.2774,"EPHEMERIS_TYPE":0,"CLASSIFICATION_TYPE":"U","NORAD_CAT_ID":55634,"ELEMENT_SET_NO":999,"REV_AT_EPOCH":14725,"BSTAR":0.00010900154,"MEAN_MOTION_DOT":1.208e-5,"MEAN_MOTION_DDOT":0}]
